YAOGAN-35 05A           
1 53760U 22109A   26066.58678890  .00000206  00000+0  10143-4 0  9996
2 53760  35.0054 257.8287 0007542 166.4261 193.6657 15.22860926195118
SEMI-1N                 
1 66297U 25248E   26068.02789443  .00007760  00000+0  35122-3 0  9995
2 66297  45.4059 296.6023 0009901 200.0771 159.9728 15.21438314 19297
