[{"OBJECT_NAME":"YAOGAN-35 05A","OBJECT_ID":"2022-109A","EPOCH":"2026-03-07T14:04:58.560960","MEAN_MOTION":15.22860926,"ECCENTRICITY":0.0007542,"INCLINATION":35.0054,"RA_OF_ASC_NODE":257.8287,"ARG_OF_PERICENTER":166.4261,"MEAN_ANOMALY":193.6657,"EPHEMERIS_TYPE":0,"CLASSIFICATION_TYPE":"U","NORAD_CAT_ID":53760,"ELEMENT_SET_NO":999,"REV_AT_EPOCH":19511,"BSTAR":1.0143e-5,"MEAN_MOTION_DOT":2.06e-6,"MEAN_MOTION_DDOT":0},{"OBJECT_NAME":"SEMI-1N","OBJECT_ID":"2025-248E","EPOCH":"2026-03-09T00:40:10.078752","MEAN_MOTION":15.21438314,"ECCENTRICITY":0.00099016,"INCLINATION":45.4059,"RA_OF_ASC_NODE":296.6023,"ARG_OF_PERICENTER":200.0771,"MEAN_ANOMALY":159.9728,"EPHEMERIS_TYPE":0,"CLASSIFICATION_TYPE":"U","NORAD_CAT_ID":66297,"ELEMENT_SET_NO":999,"REV_AT_EPOCH":1929,"BSTAR":0.00035121654,"MEAN_MOTION_DOT":7.76e-5,"MEAN_MOTION_DDOT":0}]
